{
  "type": "FeatureCollection",
  "features": [
    {
      "type": "Feature",
      "properties": {
        "norad_id": 33376,
        "name": "GALAXY 19 (G-19)",
        "group": "intelsat",
        "lat": -0.022245556259479486,
        "lon": -97.63831141210409,
        "alt_km": 35771.840560409866,
        "timestamp": "2025-12-07T18:50:16.391803+00:00",
        "meta_object_name": "GALAXY 19 (G-19)",
        "meta_object_id": "2008-045A",
        "meta_epoch": "2025-12-07T07:11:28.707648",
        "meta_mean_motion": 1.00270676,
        "meta_eccentricity": 0.00034599,
        "meta_inclination": 0.0269,
        "meta_ra_of_asc_node": 70.3583,
        "meta_arg_of_pericenter": 198.0545,
        "meta_mean_anomaly": 178.7848,
        "meta_ephemeris_type": 0,
        "meta_classification_type": "U",
        "meta_norad_cat_id": 33376,
        "meta_element_set_no": 999,
        "meta_rev_at_epoch": 6298,
        "meta_bstar": 0,
        "meta_mean_motion_dot": -1.35e-06,
        "meta_mean_motion_ddot": 0,
        "tle_line1": "1 33376U 08045A   25341.29963782 -.00000135  00000+0  00000+0 0  9998",
        "tle_line2": "2 33376   0.0269  70.3583 0003459 198.0545 178.7848  1.00270676 62987"
      },
      "geometry": {
        "type": "Point",
        "coordinates": [
          -97.63831141210409,
          -0.022245556259479486
        ]
      }
    },
    {
      "type": "Feature",
      "properties": {
        "norad_id": 35493,
        "name": "FM-5",
        "group": "intelsat",
        "lat": -0.019700923416641963,
        "lon": -86.7765562725551,
        "alt_km": 35786.19291284528,
        "timestamp": "2025-12-07T18:50:16.391815+00:00",
        "meta_object_name": "FM-5",
        "meta_object_id": "2009-034A",
        "meta_epoch": "2025-12-07T07:31:49.294272",
        "meta_mean_motion": 1.00270941,
        "meta_eccentricity": 5.693e-05,
        "meta_inclination": 0.019,
        "meta_ra_of_asc_node": 288.6137,
        "meta_arg_of_pericenter": 258.2784,
        "meta_mean_anomaly": 276.256,
        "meta_ephemeris_type": 0,
        "meta_classification_type": "U",
        "meta_norad_cat_id": 35493,
        "meta_element_set_no": 999,
        "meta_rev_at_epoch": 4472,
        "meta_bstar": 0,
        "meta_mean_motion_dot": -1.96e-06,
        "meta_mean_motion_ddot": 0,
        "tle_line1": "1 35493U 09034A   25341.31376498 -.00000196  00000+0  00000+0 0  9991",
        "tle_line2": "2 35493   0.0190 288.6137 0000569 258.2784 276.2560  1.00270941 44726"
      },
      "geometry": {
        "type": "Point",
        "coordinates": [
          -86.7765562725551,
          -0.019700923416641963
        ]
      }
    },
    {
      "type": "Feature",
      "properties": {
        "norad_id": 36097,
        "name": "INTELSAT 14 (IS-14)",
        "group": "intelsat",
        "lat": -0.01727402177525921,
        "lon": -45.60024348720183,
        "alt_km": 35779.64238621985,
        "timestamp": "2025-12-07T18:50:16.391827+00:00",
        "meta_object_name": "INTELSAT 14 (IS-14)",
        "meta_object_id": "2009-064A",
        "meta_epoch": "2025-12-07T06:34:18.055776",
        "meta_mean_motion": 1.00270968,
        "meta_eccentricity": 0.0002726,
        "meta_inclination": 0.0091,
        "meta_ra_of_asc_node": 351.7597,
        "meta_arg_of_pericenter": 268.2545,
        "meta_mean_anomaly": 229.8718,
        "meta_ephemeris_type": 0,
        "meta_classification_type": "U",
        "meta_norad_cat_id": 36097,
        "meta_element_set_no": 999,
        "meta_rev_at_epoch": 5868,
        "meta_bstar": 0,
        "meta_mean_motion_dot": -2.69e-06,
        "meta_mean_motion_ddot": 0,
        "tle_line1": "1 36097U 09064A   25341.27382009 -.00000269  00000+0  00000+0 0  9996",
        "tle_line2": "2 36097   0.0091 351.7597 0002726 268.2545 229.8718  1.00270968 58680"
      },
      "geometry": {
        "type": "Point",
        "coordinates": [
          -45.60024348720183,
          -0.01727402177525921
        ]
      }
    },
    {
      "type": "Feature",
      "properties": {
        "norad_id": 36106,
        "name": "INTELSAT 15 (IS-15)",
        "group": "intelsat",
        "lat": 0.03920725430830825,
        "lon": 84.51574452999162,
        "alt_km": 35797.08617967826,
        "timestamp": "2025-12-07T18:50:16.391839+00:00",
        "meta_object_name": "INTELSAT 15 (IS-15)",
        "meta_object_id": "2009-067A",
        "meta_epoch": "2025-12-07T02:03:15.489216",
        "meta_mean_motion": 1.00270328,
        "meta_eccentricity": 0.00024994,
        "meta_inclination": 0.0165,
        "meta_ra_of_asc_node": 344.2169,
        "meta_arg_of_pericenter": 276.1108,
        "meta_mean_anomaly": 291.7578,
        "meta_ephemeris_type": 0,
        "meta_classification_type": "U",
        "meta_norad_cat_id": 36106,
        "meta_element_set_no": 999,
        "meta_rev_at_epoch": 3930,
        "meta_bstar": 0,
        "meta_mean_motion_dot": -1.8e-06,
        "meta_mean_motion_ddot": 0,
        "tle_line1": "1 36106U 09067A   25341.08559594 -.00000180  00000+0  00000+0 0  9996",
        "tle_line2": "2 36106   0.0165 344.2169 0002499 276.1108 291.7578  1.00270328 39305"
      },
      "geometry": {
        "type": "Point",
        "coordinates": [
          84.51574452999162,
          0.03920725430830825
        ]
      }
    },
    {
      "type": "Feature",
      "properties": {
        "norad_id": 36131,
        "name": "DIRECTV 12",
        "group": "intelsat",
        "lat": 0.005567655334208174,
        "lon": -103.3620145676571,
        "alt_km": 35785.911681024685,
        "timestamp": "2025-12-07T18:50:16.391851+00:00",
        "meta_object_name": "DIRECTV 12",
        "meta_object_id": "2009-075A",
        "meta_epoch": "2025-12-06T14:53:20.048352",
        "meta_mean_motion": 1.00272184,
        "meta_eccentricity": 4.645e-05,
        "meta_inclination": 0.0503,
        "meta_ra_of_asc_node": 138.3397,
        "meta_arg_of_pericenter": 206.243,
        "meta_mean_anomaly": 211.6829,
        "meta_ephemeris_type": 0,
        "meta_classification_type": "U",
        "meta_norad_cat_id": 36131,
        "meta_element_set_no": 999,
        "meta_rev_at_epoch": 4462,
        "meta_bstar": 0,
        "meta_mean_motion_dot": -9.7e-07,
        "meta_mean_motion_ddot": 0,
        "tle_line1": "1 36131U 09075A   25340.62037093 -.00000097  00000+0  00000+0 0  9994",
        "tle_line2": "2 36131   0.0503 138.3397 0000464 206.2430 211.6829  1.00272184 44629"
      },
      "geometry": {
        "type": "Point",
        "coordinates": [
          -103.3620145676571,
          0.005567655334208174
        ]
      }
    },
    {
      "type": "Feature",
      "properties": {
        "norad_id": 36397,
        "name": "INTELSAT 16 (IS-16)",
        "group": "intelsat",
        "lat": -0.022880979939901718,
        "lon": -76.82196399789028,
        "alt_km": 35777.238462628535,
        "timestamp": "2025-12-07T18:50:16.391863+00:00",
        "meta_object_name": "INTELSAT 16 (IS-16)",
        "meta_object_id": "2010-006A",
        "meta_epoch": "2025-12-07T06:34:14.024352",
        "meta_mean_motion": 1.00270899,
        "meta_eccentricity": 0.00023584,
        "meta_inclination": 0.0113,
        "meta_ra_of_asc_node": 318.2366,
        "meta_arg_of_pericenter": 301.1561,
        "meta_mean_anomaly": 199.2694,
        "meta_ephemeris_type": 0,
        "meta_classification_type": "U",
        "meta_norad_cat_id": 36397,
        "meta_element_set_no": 999,
        "meta_rev_at_epoch": 5773,
        "meta_bstar": 0,
        "meta_mean_motion_dot": -2.4e-06,
        "meta_mean_motion_ddot": 0,
        "tle_line1": "1 36397U 10006A   25341.27377343 -.00000240  00000+0  00000+0 0  9991",
        "tle_line2": "2 36397   0.0113 318.2366 0002358 301.1561 199.2694  1.00270899 57737"
      },
      "geometry": {
        "type": "Point",
        "coordinates": [
          -76.82196399789028,
          -0.022880979939901718
        ]
      }
    },
    {
      "type": "Feature",
      "properties": {
        "norad_id": 37185,
        "name": "XM-5",
        "group": "intelsat",
        "lat": -0.04865110644502736,
        "lon": -115.81557598856395,
        "alt_km": 35786.12381589415,
        "timestamp": "2025-12-07T18:50:16.391875+00:00",
        "meta_object_name": "XM-5",
        "meta_object_id": "2010-053A",
        "meta_epoch": "2025-12-06T21:40:40.643616",
        "meta_mean_motion": 1.00268224,
        "meta_eccentricity": 0.0001708,
        "meta_inclination": 0.0621,
        "meta_ra_of_asc_node": 273.0037,
        "meta_arg_of_pericenter": 248.6895,
        "meta_mean_anomaly": 124.2219,
        "meta_ephemeris_type": 0,
        "meta_classification_type": "U",
        "meta_norad_cat_id": 37185,
        "meta_element_set_no": 999,
        "meta_rev_at_epoch": 5555,
        "meta_bstar": 0,
        "meta_mean_motion_dot": -1.7e-07,
        "meta_mean_motion_ddot": 0,
        "tle_line1": "1 37185U 10053A   25340.90324819 -.00000017  00000+0  00000+0 0  9990",
        "tle_line2": "2 37185   0.0621 273.0037 0001708 248.6895 124.2219  1.00268224 55551"
      },
      "geometry": {
        "type": "Point",
        "coordinates": [
          -115.81557598856395,
          -0.04865110644502736
        ]
      }
    }
  ]
}